{
  "type": "FeatureCollection",
  "features": [
    {
      "type": "Feature",
      "properties": {
        "norad_id": 43602,
        "name": "BEIDOU-3 M12 (C26)",
        "group": "beidou",
        "lat": -8.430379502537205,
        "lon": 13.455308852867818,
        "alt_km": 21551.73228109231,
        "timestamp": "2025-12-14T11:29:50.325629+00:00",
        "meta_object_name": "BEIDOU-3 M12 (C26)",
        "meta_object_id": "2018-067A",
        "meta_epoch": "2025-12-13T02:54:46.196064",
        "meta_mean_motion": 1.8622768,
        "meta_eccentricity": 0.00091748,
        "meta_inclination": 54.1833,
        "meta_ra_of_asc_node": 187.3503,
        "meta_arg_of_pericenter": 41.0824,
        "meta_mean_anomaly": 319.0476,
        "meta_ephemeris_type": 0,
        "meta_classification_type": "U",
        "meta_norad_cat_id": 43602,
        "meta_element_set_no": 999,
        "meta_rev_at_epoch": 4965,
        "meta_bstar": 0,
        "meta_mean_motion_dot": 9.3e-07,
        "meta_mean_motion_ddot": 0,
        "tle_line1": "1 43602U 18067A   25347.12136801  .00000093  00000+0  00000+0 0  9990",
        "tle_line2": "2 43602  54.1833 187.3503 0009174  41.0824 319.0476  1.86227680 49652"
      },
      "geometry": {
        "type": "Point",
        "coordinates": [
          13.455308852867818,
          -8.430379502537205
        ]
      }
    },
    {
      "type": "Feature",
      "properties": {
        "norad_id": 43603,
        "name": "BEIDOU-3 M11 (C25)",
        "group": "beidou",
        "lat": 52.924853299115114,
        "lon": -65.6646761944,
        "alt_km": 21515.200744517064,
        "timestamp": "2025-12-14T11:29:50.325640+00:00",
        "meta_object_name": "BEIDOU-3 M11 (C25)",
        "meta_object_id": "2018-067B",
        "meta_epoch": "2025-12-13T06:08:27.943008",
        "meta_mean_motion": 1.86227177,
        "meta_eccentricity": 0.00055759,
        "meta_inclination": 54.1803,
        "meta_ra_of_asc_node": 187.3097,
        "meta_arg_of_pericenter": 36.863,
        "meta_mean_anomaly": 323.2366,
        "meta_ephemeris_type": 0,
        "meta_classification_type": "U",
        "meta_norad_cat_id": 43603,
        "meta_element_set_no": 999,
        "meta_rev_at_epoch": 4968,
        "meta_bstar": 0,
        "meta_mean_motion_dot": 9.5e-07,
        "meta_mean_motion_ddot": 0,
        "tle_line1": "1 43603U 18067B   25347.25587897  .00000095  00000+0  00000+0 0  9992",
        "tle_line2": "2 43603  54.1803 187.3097 0005575  36.8630 323.2366  1.86227177 49685"
      },
      "geometry": {
        "type": "Point",
        "coordinates": [
          -65.6646761944,
          52.924853299115114
        ]
      }
    },
    {
      "type": "Feature",
      "properties": {
        "norad_id": 43622,
        "name": "BEIDOU-3 M13 (C32)",
        "group": "beidou",
        "lat": 40.23722760232596,
        "lon": -145.3193872239539,
        "alt_km": 21539.338127676474,
        "timestamp": "2025-12-14T11:29:50.325651+00:00",
        "meta_object_name": "BEIDOU-3 M13 (C32)",
        "meta_object_id": "2018-072A",
        "meta_epoch": "2025-12-12T16:12:36.163584",
        "meta_mean_motion": 1.8623072,
        "meta_eccentricity": 0.0005872,
        "meta_inclination": 56.4592,
        "meta_ra_of_asc_node": 68.8222,
        "meta_arg_of_pericenter": 298.9421,
        "meta_mean_anomaly": 61.0187,
        "meta_ephemeris_type": 0,
        "meta_classification_type": "U",
        "meta_norad_cat_id": 43622,
        "meta_element_set_no": 999,
        "meta_rev_at_epoch": 4918,
        "meta_bstar": 0,
        "meta_mean_motion_dot": -7.4e-07,
        "meta_mean_motion_ddot": 0,
        "tle_line1": "1 43622U 18072A   25346.67541856 -.00000074  00000+0  00000+0 0  9997",
        "tle_line2": "2 43622  56.4592  68.8222 0005872 298.9421  61.0187  1.86230720 49189"
      },
      "geometry": {
        "type": "Point",
        "coordinates": [
          -145.3193872239539,
          40.23722760232596
        ]
      }
    },
    {
      "type": "Feature",
      "properties": {
        "norad_id": 43623,
        "name": "BEIDOU-3 M14 (C33)",
        "group": "beidou",
        "lat": -31.977047201844155,
        "lon": -86.81157484845068,
        "alt_km": 21536.04500411879,
        "timestamp": "2025-12-14T11:29:50.325661+00:00",
        "meta_object_name": "BEIDOU-3 M14 (C33)",
        "meta_object_id": "2018-072B",
        "meta_epoch": "2025-12-12T00:05:39.634080",
        "meta_mean_motion": 1.86230719,
        "meta_eccentricity": 0.00032787,
        "meta_inclination": 56.4604,
        "meta_ra_of_asc_node": 68.8385,
        "meta_arg_of_pericenter": 334.6213,
        "meta_mean_anomaly": 25.3832,
        "meta_ephemeris_type": 0,
        "meta_classification_type": "U",
        "meta_norad_cat_id": 43623,
        "meta_element_set_no": 999,
        "meta_rev_at_epoch": 4916,
        "meta_bstar": 0,
        "meta_mean_motion_dot": -6.8e-07,
        "meta_mean_motion_ddot": 0,
        "tle_line1": "1 43623U 18072B   25346.00393095 -.00000068  00000+0  00000+0 0  9998",
        "tle_line2": "2 43623  56.4604  68.8385 0003278 334.6213  25.3832  1.86230719 49165"
      },
      "geometry": {
        "type": "Point",
        "coordinates": [
          -86.81157484845068,
          -31.977047201844155
        ]
      }
    },
    {
      "type": "Feature",
      "properties": {
        "norad_id": 43647,
        "name": "BEIDOU-3 M16 (C35)",
        "group": "beidou",
        "lat": 47.9641004357978,
        "lon": 73.48326425356707,
        "alt_km": 21523.725728077236,
        "timestamp": "2025-12-14T11:29:50.325672+00:00",
        "meta_object_name": "BEIDOU-3 M16 (C35)",
        "meta_object_id": "2018-078A",
        "meta_epoch": "2025-12-13T05:39:20.780352",
        "meta_mean_motion": 1.8623234,
        "meta_eccentricity": 0.00072054,
        "meta_inclination": 54.2615,
        "meta_ra_of_asc_node": 306.5038,
        "meta_arg_of_pericenter": 19.3609,
        "meta_mean_anomaly": 340.6562,
        "meta_ephemeris_type": 0,
        "meta_classification_type": "U",
        "meta_norad_cat_id": 43647,
        "meta_element_set_no": 999,
        "meta_rev_at_epoch": 4869,
        "meta_bstar": 0,
        "meta_mean_motion_dot": -9.7e-07,
        "meta_mean_motion_ddot": 0,
        "tle_line1": "1 43647U 18078A   25347.23565718 -.00000097  00000+0  00000+0 0  9991",
        "tle_line2": "2 43647  54.2615 306.5038 0007205  19.3609 340.6562  1.86232340 48698"
      },
      "geometry": {
        "type": "Point",
        "coordinates": [
          73.48326425356707,
          47.9641004357978
        ]
      }
    },
    {
      "type": "Feature",
      "properties": {
        "norad_id": 43648,
        "name": "BEIDOU-3 M15 (C34)",
        "group": "beidou",
        "lat": 21.641348459599566,
        "lon": -36.96718551913789,
        "alt_km": 21515.258197277202,
        "timestamp": "2025-12-14T11:29:50.325684+00:00",
        "meta_object_name": "BEIDOU-3 M15 (C34)",
        "meta_object_id": "2018-078B",
        "meta_epoch": "2025-12-13T08:45:25.915392",
        "meta_mean_motion": 1.86231906,
        "meta_eccentricity": 0.00036695,
        "meta_inclination": 54.2569,
        "meta_ra_of_asc_node": 306.4994,
        "meta_arg_of_pericenter": 18.0658,
        "meta_mean_anomaly": 341.9369,
        "meta_ephemeris_type": 0,
        "meta_classification_type": "U",
        "meta_norad_cat_id": 43648,
        "meta_element_set_no": 999,
        "meta_rev_at_epoch": 4871,
        "meta_bstar": 0,
        "meta_mean_motion_dot": -9.7e-07,
        "meta_mean_motion_ddot": 0,
        "tle_line1": "1 43648U 18078B   25347.36488328 -.00000097  00000+0  00000+0 0  9997",
        "tle_line2": "2 43648  54.2569 306.4994 0003669  18.0658 341.9369  1.86231906 48716"
      },
      "geometry": {
        "type": "Point",
        "coordinates": [
          -36.96718551913789,
          21.641348459599566
        ]
      }
    },
    {
      "type": "Feature",
      "properties": {
        "norad_id": 43683,
        "name": "BEIDOU-3 G1 (C59)",
        "group": "beidou",
        "lat": -2.3864723443288263,
        "lon": 35.919108710363744,
        "alt_km": 35790.970229115504,
        "timestamp": "2025-12-14T11:29:50.325696+00:00",
        "meta_object_name": "BEIDOU-3 G1 (C59)",
        "meta_object_id": "2018-085A",
        "meta_epoch": "2025-12-13T15:49:37.101216",
        "meta_mean_motion": 1.00270541,
        "meta_eccentricity": 0.00016664,
        "meta_inclination": 2.6102,
        "meta_ra_of_asc_node": 102.947,
        "meta_arg_of_pericenter": 59.2354,
        "meta_mean_anomaly": 297.8776,
        "meta_ephemeris_type": 0,
        "meta_classification_type": "U",
        "meta_norad_cat_id": 43683,
        "meta_element_set_no": 999,
        "meta_rev_at_epoch": 2619,
        "meta_bstar": 0,
        "meta_mean_motion_dot": -2.62e-06,
        "meta_mean_motion_ddot": 0,
        "tle_line1": "1 43683U 18085A   25347.65945719 -.00000262  00000+0  00000+0 0  9992",
        "tle_line2": "2 43683   2.6102 102.9470 0001666  59.2354 297.8776  1.00270541 26191"
      },
      "geometry": {
        "type": "Point",
        "coordinates": [
          35.919108710363744,
          -2.3864723443288263
        ]
      }
    }
  ]
}